{
    "links": {
        "self": "http://www.neowsapp.com/rest/v1/neo/3662645?api_key=iIulBulltgU6a56xZRHN4H3l9WmuAYTsLGpBGhQ2"
    },
    "id": "3662645",
    "neo_reference_id": "3662645",
    "name": "(2014 DG80)",
    "designation": "2014 DG80",
    "nasa_jpl_url": "http://ssd.jpl.nasa.gov/sbdb.cgi?sstr=3662645",
    "absolute_magnitude_h": 24.9,
    "estimated_diameter": {
        "kilometers": {
            "estimated_diameter_min": 0.0278326768,
            "estimated_diameter_max": 0.0622357573
        },
        "meters": {
            "estimated_diameter_min": 27.8326768072,
            "estimated_diameter_max": 62.2357573367
        },
        "miles": {
            "estimated_diameter_min": 0.0172944182,
            "estimated_diameter_max": 0.0386714948
        },
        "feet": {
            "estimated_diameter_min": 91.3145593761,
            "estimated_diameter_max": 204.1855621004
        }
    },
    "is_potentially_hazardous_asteroid": false,
    "close_approach_data": [
        {
            "close_approach_date": "1943-03-06",
            "close_approach_date_full": "1943-Mar-06 21:45",
            "epoch_date_close_approach": -846468900000,
            "relative_velocity": {
                "kilometers_per_second": "10.0274501281",
                "kilometers_per_hour": "36098.8204610405",
                "miles_per_hour": "22430.4031914726"
            },
            "miss_distance": {
                "astronomical": "0.1536131397",
                "lunar": "59.7555113433",
                "kilometers": "22980198.503132439",
                "miles": "14279233.2130040982"
            },
            "orbiting_body": "Earth"
        },
        {
            "close_approach_date": "1950-06-05",
            "close_approach_date_full": "1950-Jun-05 15:53",
            "epoch_date_close_approach": -617702820000,
            "relative_velocity": {
                "kilometers_per_second": "17.936642378",
                "kilometers_per_hour": "64571.912560643",
                "miles_per_hour": "40122.4753352507"
            },
            "miss_distance": {
                "astronomical": "0.4126766829",
                "lunar": "160.5312296481",
                "kilometers": "61735552.760505423",
                "miles": "38360693.6763759174"
            },
            "orbiting_body": "Earth"
        },
        {
            "close_approach_date": "1995-06-09",
            "close_approach_date_full": "1995-Jun-09 10:33",
            "epoch_date_close_approach": 802693980000,
            "relative_velocity": {
                "kilometers_per_second": "19.035820643",
                "kilometers_per_hour": "68528.9543147964",
                "miles_per_hour": "42581.2271963245"
            },
            "miss_distance": {
                "astronomical": "0.4437848113",
                "lunar": "172.6322915957",
                "kilometers": "66389262.508831931",
                "miles": "41252374.8249494078"
            },
            "orbiting_body": "Earth"
        },
        {
            "close_approach_date": "2014-03-24",
            "close_approach_date_full": "2014-Mar-24 05:00",
            "epoch_date_close_approach": 1395637200000,
            "relative_velocity": {
                "kilometers_per_second": "6.4575529507",
                "kilometers_per_hour": "23247.1906224561",
                "miles_per_hour": "14444.9001953811"
            },
            "miss_distance": {
                "astronomical": "0.0399414147",
                "lunar": "15.5372103183",
                "kilometers": "5975150.563906689",
                "miles": "3712786.3962187482"
            },
            "orbiting_body": "Earth"
        },
        {
            "close_approach_date": "2021-05-31",
            "close_approach_date_full": "2021-May-31 20:07",
            "epoch_date_close_approach": 1622491620000,
            "relative_velocity": {
                "kilometers_per_second": "14.7718487484",
                "kilometers_per_hour": "53178.6554941784",
                "miles_per_hour": "33043.1484652577"
            },
            "miss_distance": {
                "astronomical": "0.2979578662",
                "lunar": "115.9056099518",
                "kilometers": "44573862.133264994",
                "miles": "27696913.6066611572"
            },
            "orbiting_body": "Earth"
        }
    ],
    "orbital_data": {
        "orbit_id": "14",
        "orbit_determination_date": "2017-04-06 08:42:15",
        "first_observation_date": "2014-02-26",
        "last_observation_date": "2014-03-24",
        "data_arc_in_days": 26,
        "observations_used": 42,
        "orbit_uncertainty": "7",
        "minimum_orbit_intersection": ".0149391",
        "jupiter_tisserand_invariant": "3.995",
        "epoch_osculation": "2459000.5",
        "eccentricity": ".4254514034871782",
        "semi_major_axis": "1.770257646239076",
        "inclination": "1.602458494328527",
        "ascending_node_longitude": "198.7868215355613",
        "orbital_period": "860.3063831679065",
        "perihelion_distance": "1.017099046112753",
        "perihelion_argument": ".5075805540932068",
        "aphelion_distance": "2.5234162463654",
        "perihelion_time": "2459334.632780673432",
        "mean_anomaly": "220.1802760087637",
        "mean_motion": ".4184555723908172",
        "equinox": "J2000",
        "orbit_class": {
            "orbit_class_type": "AMO",
            "orbit_class_description": "Near-Earth asteroid orbits similar to that of 1221 Amor",
            "orbit_class_range": "1.017 AU < q (perihelion) < 1.3 AU"
        }
    },
    "is_sentry_object": false
}